{"type": "FeatureCollection", "features": [ {"type": "Feature", "properties": {"norad_id": 44542, "name": "BEIDOU-3 M24 (C46)", "group": "gnss", "lat": 54.3124939435472, "lon": -85.12802888671371, "alt_km": 21509.17697677291, "timestamp": "2025-12-24T20:42:21.270620+00:00", "meta": {"OBJECT_NAME": "BEIDOU-3 M24 (C46)", "OBJECT_ID": "2019-061A", "EPOCH": "2025-12-23T15:47:40.430112", "MEAN_MOTION": 1.86229437, "ECCENTRICITY": 0.00095913, "INCLINATION": 54.4006, "RA_OF_ASC_NODE": 188.6475, "ARG_OF_PERICENTER": 26.0313, "MEAN_ANOMALY": 334.0556, "EPHEMERIS_TYPE": 0, "CLASSIFICATION_TYPE": "U", "NORAD_CAT_ID": 44542, "ELEMENT_SET_NO": 999, "REV_AT_EPOCH": 4252, "BSTAR": 0, "MEAN_MOTION_DOT": 9.9e-07, "MEAN_MOTION_DDOT": 0}, "tle": {"line1": "1 44542U 19061A   25357.65810683  .00000099  00000+0  00000+0 0  9991", "line2": "2 44542  54.4006 188.6475 0009591  26.0313 334.0556  1.86229437 42529"}}, "geometry": {"type": "Point", "coordinates": [-85.12802888671371, 54.3124939435472]}}, {"type": "Feature", "properties": {"norad_id": 44543, "name": "BEIDOU-3 M23 (C45)", "group": "gnss", "lat": 0.2875791936566794, "lon": -171.21564861907004, "alt_km": 21513.426697707586, "timestamp": "2025-12-24T20:42:21.270637+00:00", "meta": {"OBJECT_NAME": "BEIDOU-3 M23 (C45)", "OBJECT_ID": "2019-061B", "EPOCH": "2025-12-24T01:09:49.421952", "MEAN_MOTION": 1.86227524, "ECCENTRICITY": 0.00060474, "INCLINATION": 54.3997, "RA_OF_ASC_NODE": 188.6027, "ARG_OF_PERICENTER": 26.1168, "MEAN_ANOMALY": 148.3907, "EPHEMERIS_TYPE": 0, "CLASSIFICATION_TYPE": "U", "NORAD_CAT_ID": 44543, "ELEMENT_SET_NO": 999, "REV_AT_EPOCH": 4253, "BSTAR": 0, "MEAN_MOTION_DOT": 1.01e-06, "MEAN_MOTION_DDOT": 0}, "tle": {"line1": "1 44543U 19061B   25358.04848868  .00000101  00000+0  00000+0 0  9996", "line2": "2 44543  54.3997 188.6027 0006047  26.1168 148.3907  1.86227524 42535"}}, "geometry": {"type": "Point", "coordinates": [-171.21564861907004, 0.2875791936566794]}}, {"type": "Feature", "properties": {"norad_id": 44624, "name": "EUTELSAT 5 WEST B (EGNOS/PRN 121)", "group": "gnss", "lat": 0.06379815160727177, "lon": 39.243874266606596, "alt_km": 35794.13379680457, "timestamp": "2025-12-24T20:42:21.270655+00:00", "meta": {"OBJECT_NAME": "EUTELSAT 5 WEST B (EGNOS/PRN 121)", "OBJECT_ID": "2019-067A", "EPOCH": "2025-12-24T06:13:37.139232", "MEAN_MOTION": 1.00271324, "ECCENTRICITY": 0.00031173, "INCLINATION": 0.0638, "RA_OF_ASC_NODE": 342.4583, "ARG_OF_PERICENTER": 289.7329, "MEAN_ANOMALY": 269.2531, "EPHEMERIS_TYPE": 0, "CLASSIFICATION_TYPE": "U", "NORAD_CAT_ID": 44624, "ELEMENT_SET_NO": 999, "REV_AT_EPOCH": 2268, "BSTAR": 0, "MEAN_MOTION_DOT": -2.1e-07, "MEAN_MOTION_DDOT": 0}, "tle": {"line1": "1 44624U 19067A   25358.25945763 -.00000021  00000+0  00000+0 0  9999", "line2": "2 44624   0.0638 342.4583 0003117 289.7329 269.2531  1.00271324 22686"}}, "geometry": {"type": "Point", "coordinates": [39.243874266606596, 0.06379815160727177]}}, {"type": "Feature", "properties": {"norad_id": 44793, "name": "BEIDOU-3 M22 (C44)", "group": "gnss", "lat": -12.119303261659937, "lon": 134.88309808235894, "alt_km": 21546.499795645537, "timestamp": "2025-12-24T20:42:21.270673+00:00", "meta": {"OBJECT_NAME": "BEIDOU-3 M22 (C44)", "OBJECT_ID": "2019-078A", "EPOCH": "2025-12-22T23:04:03.320256", "MEAN_MOTION": 1.86232206, "ECCENTRICITY": 0.00060944, "INCLINATION": 54.0989, "RA_OF_ASC_NODE": 306.0279, "ARG_OF_PERICENTER": 24.0205, "MEAN_ANOMALY": 336.0117, "EPHEMERIS_TYPE": 0, "CLASSIFICATION_TYPE": "U", "NORAD_CAT_ID": 44793, "ELEMENT_SET_NO": 999, "REV_AT_EPOCH": 4136, "BSTAR": 0, "MEAN_MOTION_DOT": -5.4e-07, "MEAN_MOTION_DDOT": 0}, "tle": {"line1": "1 44793U 19078A   25356.96114954 -.00000054  00000+0  00000+0 0  9990", "line2": "2 44793  54.0989 306.0279 0006094  24.0205 336.0117  1.86232206 41368"}}, "geometry": {"type": "Point", "coordinates": [134.88309808235894, -12.119303261659937]}}, {"type": "Feature", "properties": {"norad_id": 44794, "name": "BEIDOU-3 M21 (C43)", "group": "gnss", "lat": 52.23872510920008, "lon": 56.663226965595605, "alt_km": 21522.15956941382, "timestamp": "2025-12-24T20:42:21.270693+00:00", "meta": {"OBJECT_NAME": "BEIDOU-3 M21 (C43)", "OBJECT_ID": "2019-078B", "EPOCH": "2025-12-24T04:09:05.808096", "MEAN_MOTION": 1.86227905, "ECCENTRICITY": 0.00042864, "INCLINATION": 54.0711, "RA_OF_ASC_NODE": 305.95, "ARG_OF_PERICENTER": 12.8306, "MEAN_ANOMALY": 347.188, "EPHEMERIS_TYPE": 0, "CLASSIFICATION_TYPE": "U", "NORAD_CAT_ID": 44794, "ELEMENT_SET_NO": 999, "REV_AT_EPOCH": 4139, "BSTAR": 0, "MEAN_MOTION_DOT": -5.2e-07, "MEAN_MOTION_DDOT": 0}, "tle": {"line1": "1 44794U 19078B   25358.17298389 -.00000052  00000+0  00000+0 0  9999", "line2": "2 44794  54.0711 305.9500 0004286  12.8306 347.1880  1.86227905 41398"}}, "geometry": {"type": "Point", "coordinates": [56.663226965595605, 52.23872510920008]}}, {"type": "Feature", "properties": {"norad_id": 44850, "name": "COSMOS 2544 (759)", "group": "gnss", "lat": -47.53242480667534, "lon": 49.68200561210774, "alt_km": 19114.76645670869, "timestamp": "2025-12-24T20:42:21.270710+00:00", "meta": {"OBJECT_NAME": "COSMOS 2544 (759)", "OBJECT_ID": "2019-088A", "EPOCH": "2025-12-23T01:21:04.162752", "MEAN_MOTION": 2.13102153, "ECCENTRICITY": 0.0014323, "INCLINATION": 65.465, "RA_OF_ASC_NODE": 79.6136, "ARG_OF_PERICENTER": 250.3939, "MEAN_ANOMALY": 109.4967, "EPHEMERIS_TYPE": 0, "CLASSIFICATION_TYPE": "U", "NORAD_CAT_ID": 44850, "ELEMENT_SET_NO": 999, "REV_AT_EPOCH": 4696, "BSTAR": 0, "MEAN_MOTION_DOT": 1e-08, "MEAN_MOTION_DDOT": 0}, "tle": {"line1": "1 44850U 19088A   25357.05629818  .00000001  00000+0  00000+0 0  9997", "line2": "2 44850  65.4650  79.6136 0014323 250.3939 109.4967  2.13102153 46964"}}, "geometry": {"type": "Point", "coordinates": [49.68200561210774, -47.53242480667534]}}, {"type": "Feature", "properties": {"norad_id": 44864, "name": "BEIDOU-3 M19 (C41)", "group": "gnss", "lat": -47.161451467428556, "lon": 22.852227627725682, "alt_km": 21483.56087813093, "timestamp": "2025-12-24T20:42:21.270728+00:00", "meta": {"OBJECT_NAME": "BEIDOU-3 M19 (C41)", "OBJECT_ID": "2019-090A", "EPOCH": "2025-12-23T08:14:02.545728", "MEAN_MOTION": 1.86231621, "ECCENTRICITY": 0.00183506, "INCLINATION": 56.4016, "RA_OF_ASC_NODE": 68.6102, "ARG_OF_PERICENTER": 285.1686, "MEAN_ANOMALY": 74.3057, "EPHEMERIS_TYPE": 0, "CLASSIFICATION_TYPE": "U", "NORAD_CAT_ID": 44864, "ELEMENT_SET_NO": 999, "REV_AT_EPOCH": 4095, "BSTAR": 0, "MEAN_MOTION_DOT": -2.5e-07, "MEAN_MOTION_DDOT": 0}, "tle": {"line1": "1 44864U 19090A   25357.34308502 -.00000025  00000+0  00000+0 0  9998", "line2": "2 44864  56.4016  68.6102 0018350 285.1686  74.3057  1.86231621 40950"}}, "geometry": {"type": "Point", "coordinates": [22.852227627725682, -47.161451467428556]}}, {"type": "Feature", "properties": {"norad_id": 44865, "name": "BEIDOU-3 M20 (C42)", "group": "gnss", "lat": 23.080102970172824, "lon": 85.04521361391747, "alt_km": 21525.768687170006, "timestamp": "2025-12-24T20:42:21.270748+00:00", "meta": {"OBJECT_NAME": "BEIDOU-3 M20 (C42)", "OBJECT_ID": "2019-090B", "EPOCH": "2025-12-24T06:49:50.341152", "MEAN_MOTION": 1.862316, "ECCENTRICITY": 0.00155247, "INCLINATION": 56.404, "RA_OF_ASC_NODE": 68.6133, "ARG_OF_PERICENTER": 297.3471, "MEAN_ANOMALY": 62.9851, "EPHEMERIS_TYPE": 0, "CLASSIFICATION_TYPE": "U", "NORAD_CAT_ID": 44865, "ELEMENT_SET_NO": 999, "REV_AT_EPOCH": 4096, "BSTAR": 0, "MEAN_MOTION_DOT": -2.4e-07, "MEAN_MOTION_DDOT": 0}, "tle": {"line1": "1 44865U 19090B   25358.28461043 -.00000024  00000+0  00000+0 0  9992", "line2": "2 44865  56.4040  68.6133 0015524 297.3471  62.9851  1.86231600 40962"}}, "geometry": {"type": "Point", "coordinates": [85.04521361391747, 23.080102970172824]}}, {"type": "Feature", "properties": {"norad_id": 45344, "name": "BEIDOU-3 G2 (C60)", "group": "gnss", "lat": 2.4995236286789417, "lon": 124.23709689655198, "alt_km": 35794.2910221605, "timestamp": "2025-12-24T20:42:21.270766+00:00", "meta": {"OBJECT_NAME": "BEIDOU-3 G2 (C60)", "OBJECT_ID": "2020-017A", "EPOCH": "2025-12-23T23:47:05.724672", "MEAN_MOTION": 1.00272217, "ECCENTRICITY": 0.00022201, "INCLINATION": 2.5166, "RA_OF_ASC_NODE": 44.183, "ARG_OF_PERICENTER": 236.7044, "MEAN_ANOMALY": 248.6997, "EPHEMERIS_TYPE": 0, "CLASSIFICATION_TYPE": "U", "NORAD_CAT_ID": 45344, "ELEMENT_SET_NO": 999, "REV_AT_EPOCH": 2150, "BSTAR": 0, "MEAN_MOTION_DOT": -1.2e-06, "MEAN_MOTION_DDOT": 0}, "tle": {"line1": "1 45344U 20017A   25357.99103848 -.00000120  00000+0  00000+0 0  9996", "line2": "2 45344   2.5166  44.1830 0002220 236.7044 248.6997  1.00272217 21509"}}, "geometry": {"type": "Point", "coordinates": [124.23709689655198, 2.4995236286789417]}}, {"type": "Feature", "properties": {"norad_id": 45358, "name": "COSMOS 2545 (760)", "group": "gnss", "lat": 21.96822439053799, "lon": 127.41898765315973, "alt_km": 19130.032002130814, "timestamp": "2025-12-24T20:42:21.270784+00:00", "meta": {"OBJECT_NAME": "COSMOS 2545 (760)", "OBJECT_ID": "2020-018A", "EPOCH": "2025-12-23T06:02:53.477376", "MEAN_MOTION": 2.13102687, "ECCENTRICITY": 0.00113235, "INCLINATION": 64.4634, "RA_OF_ASC_NODE": 318.6014, "ARG_OF_PERICENTER": 250.5824, "MEAN_ANOMALY": 109.2939, "EPHEMERIS_TYPE": 0, "CLASSIFICATION_TYPE": "U", "NORAD_CAT_ID": 45358, "ELEMENT_SET_NO": 999, "REV_AT_EPOCH": 4491, "BSTAR": 0, "MEAN_MOTION_DOT": -3.7e-07, "MEAN_MOTION_DDOT": 0}, "tle": {"line1": "1 45358U 20018A   25357.25200784 -.00000037  00000+0  00000+0 0  9995", "line2": "2 45358  64.4634 318.6014 0011323 250.5824 109.2939  2.13102687 44914"}}, "geometry": {"type": "Point", "coordinates": [127.41898765315973, 21.96822439053799]}}]}